{
  "type": "FeatureCollection",
  "features": [
    {
      "type": "Feature",
      "properties": {
        "norad_id": 33939,
        "name": "COSMOS 2251 DEB",
        "group": "cosmos-2251-debris",
        "lat": -47.748007392704096,
        "lon": 62.29876299861106,
        "alt_km": 574.4507130363781,
        "timestamp": "2025-12-12T16:50:33.539529+00:00",
        "meta_object_name": "COSMOS 2251 DEB",
        "meta_object_id": "1993-036EU",
        "meta_epoch": "2025-12-12T07:27:42.660288",
        "meta_mean_motion": 14.99854352,
        "meta_eccentricity": 0.00036294,
        "meta_inclination": 74.0062,
        "meta_ra_of_asc_node": 81.5,
        "meta_arg_of_pericenter": 58.1804,
        "meta_mean_anomaly": 301.9735,
        "meta_ephemeris_type": 0,
        "meta_classification_type": "U",
        "meta_norad_cat_id": 33939,
        "meta_element_set_no": 999,
        "meta_rev_at_epoch": 88746,
        "meta_bstar": 0.0047600806,
        "meta_mean_motion_dot": 0.00059465,
        "meta_mean_motion_ddot": 0,
        "tle_line1": "1 33939U 93036EU  25346.31091042  .00059465  00000+0  47601-2 0  9996",
        "tle_line2": "2 33939  74.0062  81.5000 0003629  58.1804 301.9735 14.99854352887469"
      },
      "geometry": {
        "type": "Point",
        "coordinates": [
          62.29876299861106,
          -47.748007392704096
        ]
      }
    },
    {
      "type": "Feature",
      "properties": {
        "norad_id": 33940,
        "name": "COSMOS 2251 DEB",
        "group": "cosmos-2251-debris",
        "lat": 73.49693560390523,
        "lon": -141.42421756644978,
        "alt_km": 695.5894936006207,
        "timestamp": "2025-12-12T16:50:33.539539+00:00",
        "meta_object_name": "COSMOS 2251 DEB",
        "meta_object_id": "1993-036EV",
        "meta_epoch": "2025-12-11T21:23:23.090208",
        "meta_mean_motion": 14.58781077,
        "meta_eccentricity": 0.0011364,
        "meta_inclination": 74.0397,
        "meta_ra_of_asc_node": 145.1124,
        "meta_arg_of_pericenter": 224.9079,
        "meta_mean_anomaly": 286.0732,
        "meta_ephemeris_type": 0,
        "meta_classification_type": "U",
        "meta_norad_cat_id": 33940,
        "meta_element_set_no": 999,
        "meta_rev_at_epoch": 88581,
        "meta_bstar": 0.0018002,
        "meta_mean_motion_dot": 8.401e-05,
        "meta_mean_motion_ddot": 0,
        "tle_line1": "1 33940U 93036EV  25345.89123947  .00008401  00000+0  18002-2 0  9997",
        "tle_line2": "2 33940  74.0397 145.1124 0011364 224.9079 286.0732 14.58781077885813"
      },
      "geometry": {
        "type": "Point",
        "coordinates": [
          -141.42421756644978,
          73.49693560390523
        ]
      }
    },
    {
      "type": "Feature",
      "properties": {
        "norad_id": 33942,
        "name": "COSMOS 2251 DEB",
        "group": "cosmos-2251-debris",
        "lat": -67.71393094944878,
        "lon": -129.4002349347354,
        "alt_km": 767.6359001697392,
        "timestamp": "2025-12-12T16:50:33.539549+00:00",
        "meta_object_name": "COSMOS 2251 DEB",
        "meta_object_id": "1993-036EX",
        "meta_epoch": "2025-12-12T06:11:56.415840",
        "meta_mean_motion": 14.37987844,
        "meta_eccentricity": 0.00202971,
        "meta_inclination": 74.0367,
        "meta_ra_of_asc_node": 275.7152,
        "meta_arg_of_pericenter": 359.0781,
        "meta_mean_anomaly": 152.0357,
        "meta_ephemeris_type": 0,
        "meta_classification_type": "U",
        "meta_norad_cat_id": 33942,
        "meta_element_set_no": 999,
        "meta_rev_at_epoch": 88127,
        "meta_bstar": 0.00038532825,
        "meta_mean_motion_dot": 1.142e-05,
        "meta_mean_motion_ddot": 0,
        "tle_line1": "1 33942U 93036EX  25346.25829185  .00001142  00000+0  38533-3 0  9994",
        "tle_line2": "2 33942  74.0367 275.7152 0020297 359.0781 152.0357 14.37987844881276"
      },
      "geometry": {
        "type": "Point",
        "coordinates": [
          -129.4002349347354,
          -67.71393094944878
        ]
      }
    },
    {
      "type": "Feature",
      "properties": {
        "norad_id": 33944,
        "name": "COSMOS 2251 DEB",
        "group": "cosmos-2251-debris",
        "lat": 17.424149432753655,
        "lon": 123.84337101282914,
        "alt_km": 798.1220173268512,
        "timestamp": "2025-12-12T16:50:33.539559+00:00",
        "meta_object_name": "COSMOS 2251 DEB",
        "meta_object_id": "1993-036EZ",
        "meta_epoch": "2025-12-12T06:35:15.244800",
        "meta_mean_motion": 14.37341783,
        "meta_eccentricity": 0.01121807,
        "meta_inclination": 74.0403,
        "meta_ra_of_asc_node": 309.782,
        "meta_arg_of_pericenter": 49.5023,
        "meta_mean_anomaly": 60.9392,
        "meta_ephemeris_type": 0,
        "meta_classification_type": "U",
        "meta_norad_cat_id": 33944,
        "meta_element_set_no": 999,
        "meta_rev_at_epoch": 88021,
        "meta_bstar": 0.00054153674,
        "meta_mean_motion_dot": 1.711e-05,
        "meta_mean_motion_ddot": 0,
        "tle_line1": "1 33944U 93036EZ  25346.27448200  .00001711  00000+0  54154-3 0  9992",
        "tle_line2": "2 33944  74.0403 309.7820 0112180  49.5023  60.9392 14.37341783880217"
      },
      "geometry": {
        "type": "Point",
        "coordinates": [
          123.84337101282914,
          17.424149432753655
        ]
      }
    },
    {
      "type": "Feature",
      "properties": {
        "norad_id": 33945,
        "name": "COSMOS 2251 DEB",
        "group": "cosmos-2251-debris",
        "lat": -44.27058536339156,
        "lon": -69.87366351754346,
        "alt_km": 779.7596926069582,
        "timestamp": "2025-12-12T16:50:33.539569+00:00",
        "meta_object_name": "COSMOS 2251 DEB",
        "meta_object_id": "1993-036FA",
        "meta_epoch": "2025-12-12T07:01:01.484256",
        "meta_mean_motion": 14.34600438,
        "meta_eccentricity": 0.00218736,
        "meta_inclination": 74.0298,
        "meta_ra_of_asc_node": 307.0867,
        "meta_arg_of_pericenter": 33.5624,
        "meta_mean_anomaly": 326.6909,
        "meta_ephemeris_type": 0,
        "meta_classification_type": "U",
        "meta_norad_cat_id": 33945,
        "meta_element_set_no": 999,
        "meta_rev_at_epoch": 88009,
        "meta_bstar": 0.00023111364,
        "meta_mean_motion_dot": 6.29e-06,
        "meta_mean_motion_ddot": 0,
        "tle_line1": "1 33945U 93036FA  25346.29237829  .00000629  00000+0  23111-3 0  9994",
        "tle_line2": "2 33945  74.0298 307.0867 0021873  33.5624 326.6909 14.34600438880094"
      },
      "geometry": {
        "type": "Point",
        "coordinates": [
          -69.87366351754346,
          -44.27058536339156
        ]
      }
    },
    {
      "type": "Feature",
      "properties": {
        "norad_id": 33948,
        "name": "COSMOS 2251 DEB",
        "group": "cosmos-2251-debris",
        "lat": 16.47348862358237,
        "lon": 120.3479950971653,
        "alt_km": 785.9387482812799,
        "timestamp": "2025-12-12T16:50:33.539580+00:00",
        "meta_object_name": "COSMOS 2251 DEB",
        "meta_object_id": "1993-036FD",
        "meta_epoch": "2025-12-12T06:03:14.006016",
        "meta_mean_motion": 14.35628402,
        "meta_eccentricity": 0.00227001,
        "meta_inclination": 74.0356,
        "meta_ra_of_asc_node": 306.0283,
        "meta_arg_of_pericenter": 22.0095,
        "meta_mean_anomaly": 338.2028,
        "meta_ephemeris_type": 0,
        "meta_classification_type": "U",
        "meta_norad_cat_id": 33948,
        "meta_element_set_no": 999,
        "meta_rev_at_epoch": 88016,
        "meta_bstar": 0.00032310008,
        "meta_mean_motion_dot": 9.08e-06,
        "meta_mean_motion_ddot": 0,
        "tle_line1": "1 33948U 93036FD  25346.25224544  .00000908  00000+0  32310-3 0  9994",
        "tle_line2": "2 33948  74.0356 306.0283 0022700  22.0095 338.2028 14.35628402880169"
      },
      "geometry": {
        "type": "Point",
        "coordinates": [
          120.3479950971653,
          16.47348862358237
        ]
      }
    },
    {
      "type": "Feature",
      "properties": {
        "norad_id": 33971,
        "name": "COSMOS 2251 DEB",
        "group": "cosmos-2251-debris",
        "lat": -47.20594182253764,
        "lon": 91.82718238675398,
        "alt_km": 773.3555102341288,
        "timestamp": "2025-12-12T16:50:33.539590+00:00",
        "meta_object_name": "COSMOS 2251 DEB",
        "meta_object_id": "1993-036FE",
        "meta_epoch": "2025-12-12T04:48:13.849056",
        "meta_mean_motion": 14.39724239,
        "meta_eccentricity": 0.00185402,
        "meta_inclination": 74.0251,
        "meta_ra_of_asc_node": 254.7302,
        "meta_arg_of_pericenter": 355.3444,
        "meta_mean_anomaly": 155.6711,
        "meta_ephemeris_type": 0,
        "meta_classification_type": "U",
        "meta_norad_cat_id": 33971,
        "meta_element_set_no": 999,
        "meta_rev_at_epoch": 88131,
        "meta_bstar": 0.00045083815,
        "meta_mean_motion_dot": 1.388e-05,
        "meta_mean_motion_ddot": 0,
        "tle_line1": "1 33971U 93036FE  25346.20016029  .00001388  00000+0  45084-3 0  9997",
        "tle_line2": "2 33971  74.0251 254.7302 0018540 355.3444 155.6711 14.39724239881314"
      },
      "geometry": {
        "type": "Point",
        "coordinates": [
          91.82718238675398,
          -47.20594182253764
        ]
      }
    }
  ]
}